[
    {
        "Altitude(m)": 556367.4098121814,
        "Argument of Periapsis(deg)": 0.0,
        "Eccentricity": 0.0,
        "Inclination(deg)": 53.0,
        "Latitude(deg)": 37.245747730745464,
        "Longitude(deg)": -20.233622315032147,
        "Mean Anomaly(deg)": 49.09089999999999,
        "RAAN(deg)": 45.0,
        "Satellite Name": "Starlink Shell 1 201",
        "Satellite Number": 201,
        "Semi-Major Axis(m)": 6931778.249405717,
        "Time(s)": 0
    },
    {
        "Altitude(m)": 556450.7957084505,
        "Argument of Periapsis(deg)": 0.00034857847951123687,
        "Eccentricity": 0.0,
        "Inclination(deg)": 53.0,
        "Latitude(deg)": 37.656973363527456,
        "Longitude(deg)": -19.67869778553978,
        "Mean Anomaly(deg)": 49.7177312035567,
        "RAAN(deg)": 44.99948122992253,
        "Satellite Name": "Starlink Shell 1 201",
        "Satellite Number": 201,
        "Semi-Major Axis(m)": 6931778.249405717,
        "Time(s)": 10
    },
    {
        "Altitude(m)": 556534.2680524207,
        "Argument of Periapsis(deg)": 0.0006971569590224737,
        "Eccentricity": 0.0,
        "Inclination(deg)": 53.0,
        "Latitude(deg)": 38.06512361631778,
        "Longitude(deg)": -19.117191895792764,
        "Mean Anomaly(deg)": 50.344562407113415,
        "RAAN(deg)": 44.99896245984505,
        "Satellite Name": "Starlink Shell 1 201",
        "Satellite Number": 201,
        "Semi-Major Axis(m)": 6931778.249405717,
        "Time(s)": 20
    },
    {
        "Altitude(m)": 556617.7716847998,
        "Argument of Periapsis(deg)": 0.0010457354385337105,
        "Eccentricity": 0.0,
        "Inclination(deg)": 53.0,
        "Latitude(deg)": 38.47011979423059,
        "Longitude(deg)": -18.548984377518366,
        "Mean Anomaly(deg)": 50.97139361067015,
        "RAAN(deg)": 44.99844368976758,
        "Satellite Name": "Starlink Shell 1 201",
        "Satellite Number": 201,
        "Semi-Major Axis(m)": 6931778.249405717,
        "Time(s)": 30
    },
    {
        "Altitude(m)": 556701.2516406523,
        "Argument of Periapsis(deg)": 0.0013943139180449475,
        "Eccentricity": 0.0,
        "Inclination(deg)": 53.0,
        "Latitude(deg)": 38.871881455013366,
        "Longitude(deg)": -17.973954601204117,
        "Mean Anomaly(deg)": 51.59822481422687,
        "RAAN(deg)": 44.997924919690114,
        "Satellite Name": "Starlink Shell 1 201",
        "Satellite Number": 201,
        "Semi-Major Axis(m)": 6931778.249405717,
        "Time(s)": 40
    },
    {
        "Altitude(m)": 556784.6531774439,
        "Argument of Periapsis(deg)": 0.0017428923975561844,
        "Eccentricity": 0.0,
        "Inclination(deg)": 53.0,
        "Latitude(deg)": 39.27032638601738,
        "Longitude(deg)": -17.391982759421584,
        "Mean Anomaly(deg)": 52.22505601778357,
        "RAAN(deg)": 44.99740614961263,
        "Satellite Name": "Starlink Shell 1 201",
        "Satellite Number": 201,
        "Semi-Major Axis(m)": 6931778.249405717,
        "Time(s)": 50
    },
    {
        "Altitude(m)": 556867.921802961,
        "Argument of Periapsis(deg)": 0.002091470877067421,
        "Eccentricity": 0.0,
        "Inclination(deg)": 53.0,
        "Latitude(deg)": 39.6653705831488,
        "Longitude(deg)": -16.8029495512025,
        "Mean Anomaly(deg)": 52.85188722134027,
        "RAAN(deg)": 44.99688737953516,
        "Satellite Name": "Starlink Shell 1 201",
        "Satellite Number": 201,
        "Semi-Major Axis(m)": 6931778.249405717,
        "Time(s)": 60
    },
    {
        "Altitude(m)": 556951.0033030547,
        "Argument of Periapsis(deg)": 0.0024400493565786582,
        "Eccentricity": 0.0,
        "Inclination(deg)": 53.0,
        "Latitude(deg)": 40.056928232040775,
        "Longitude(deg)": -16.206735880946823,
        "Mean Anomaly(deg)": 53.47871842489701,
        "RAAN(deg)": 44.99636860945769,
        "Satellite Name": "Starlink Shell 1 201",
        "Satellite Number": 201,
        "Semi-Major Axis(m)": 6931778.249405717,
        "Time(s)": 70
    },
    {
        "Altitude(m)": 557033.8437691987,
        "Argument of Periapsis(deg)": 0.002788627836089895,
        "Eccentricity": 0.0,
        "Inclination(deg)": 53.0,
        "Latitude(deg)": 40.44491169170155,
        "Longitude(deg)": -15.60322408533241,
        "Mean Anomaly(deg)": 54.10554962845371,
        "RAAN(deg)": 44.99584983938021,
        "Satellite Name": "Starlink Shell 1 201",
        "Satellite Number": 201,
        "Semi-Major Axis(m)": 6931778.249405717,
        "Time(s)": 80
    },
    {
        "Altitude(m)": 557116.3896258613,
        "Argument of Periapsis(deg)": 0.0031372063156011316,
        "Eccentricity": 0.0,
        "Inclination(deg)": 53.0,
        "Latitude(deg)": 40.82923148091894,
        "Longitude(deg)": -14.992297663059947,
        "Mean Anomaly(deg)": 54.732380832010435,
        "RAAN(deg)": 44.99533106930274,
        "Satellite Name": "Starlink Shell 1 201",
        "Satellite Number": 201,
        "Semi-Major Axis(m)": 6931778.249405717,
        "Time(s)": 90
    },
    {
        "Altitude(m)": 557198.5876576628,
        "Argument of Periapsis(deg)": 0.0034857847951123688,
        "Eccentricity": 0.0,
        "Inclination(deg)": 53.0,
        "Latitude(deg)": 41.209796267707446,
        "Longitude(deg)": -14.373841020859178,
        "Mean Anomaly(deg)": 55.35921203556714,
        "RAAN(deg)": 44.994812299225266,
        "Satellite Name": "Starlink Shell 1 201",
        "Satellite Number": 201,
        "Semi-Major Axis(m)": 6931778.249405717,
        "Time(s)": 100
    },
    {
        "Altitude(m)": 557280.3850363224,
        "Argument of Periapsis(deg)": 0.003834363274623606,
        "Eccentricity": 0.0,
        "Inclination(deg)": 53.0,
        "Latitude(deg)": 41.586512862103085,
        "Longitude(deg)": -13.747740749150877,
        "Mean Anomaly(deg)": 55.98604323912387,
        "RAAN(deg)": 44.9942935291478,
        "Satellite Name": "Starlink Shell 1 201",
        "Satellite Number": 201,
        "Semi-Major Axis(m)": 6931778.249405717,
        "Time(s)": 110
    },
    {
        "Altitude(m)": 557361.729347387,
        "Argument of Periapsis(deg)": 0.004182941754134842,
        "Eccentricity": 0.0,
        "Inclination(deg)": 53.0,
        "Latitude(deg)": 41.95928621263248,
        "Longitude(deg)": -13.113885402098559,
        "Mean Anomaly(deg)": 56.612874442680585,
        "RAAN(deg)": 44.99377475907033,
        "Satellite Name": "Starlink Shell 1 201",
        "Satellite Number": 201,
        "Semi-Major Axis(m)": 6931778.249405717,
        "Time(s)": 120
    },
    {
        "Altitude(m)": 557442.5686166792,
        "Argument of Periapsis(deg)": 0.004531520233646079,
        "Eccentricity": 0.0,
        "Inclination(deg)": 53.0,
        "Latitude(deg)": 42.328019406792336,
        "Longitude(deg)": -12.472165295353086,
        "Mean Anomaly(deg)": 57.2397056462373,
        "RAAN(deg)": 44.99325598899285,
        "Satellite Name": "Starlink Shell 1 201",
        "Satellite Number": 201,
        "Semi-Major Axis(m)": 6931778.249405717,
        "Time(s)": 130
    },
    {
        "Altitude(m)": 557522.8513365241,
        "Argument of Periapsis(deg)": 0.0048800987131573164,
        "Eccentricity": 0.0,
        "Inclination(deg)": 53.0,
        "Latitude(deg)": 42.69261367588939,
        "Longitude(deg)": -11.82247383473015,
        "Mean Anomaly(deg)": 57.86653684979402,
        "RAAN(deg)": 44.99273721891538,
        "Satellite Name": "Starlink Shell 1 201",
        "Satellite Number": 201,
        "Semi-Major Axis(m)": 6931778.249405717,
        "Time(s)": 140
    },
    {
        "Altitude(m)": 557602.5264916973,
        "Argument of Periapsis(deg)": 0.005228677192668553,
        "Eccentricity": 0.0,
        "Inclination(deg)": 53.0,
        "Latitude(deg)": 43.052968404614425,
        "Longitude(deg)": -11.164707350372874,
        "Mean Anomaly(deg)": 58.49336805335072,
        "RAAN(deg)": 44.99221844883791,
        "Satellite Name": "Starlink Shell 1 201",
        "Satellite Number": 201,
        "Semi-Major Axis(m)": 6931778.249405717,
        "Time(s)": 150
    },
    {
        "Altitude(m)": 557681.5435850857,
        "Argument of Periapsis(deg)": 0.00557725567217979,
        "Eccentricity": 0.0,
        "Inclination(deg)": 53.0,
        "Latitude(deg)": 43.408981145728916,
        "Longitude(deg)": -10.49876494948354,
        "Mean Anomaly(deg)": 59.12019925690743,
        "RAAN(deg)": 44.99169967876043,
        "Satellite Name": "Starlink Shell 1 201",
        "Satellite Number": 201,
        "Semi-Major Axis(m)": 6931778.249405717,
        "Time(s)": 160
    },
    {
        "Altitude(m)": 557759.8526630758,
        "Argument of Periapsis(deg)": 0.0059258341516910265,
        "Eccentricity": 0.0,
        "Inclination(deg)": 53.0,
        "Latitude(deg)": 43.76054764025611,
        "Longitude(deg)": -9.8245499006123,
        "Mean Anomaly(deg)": 59.747030460464146,
        "RAAN(deg)": 44.99118090868296,
        "Satellite Name": "Starlink Shell 1 201",
        "Satellite Number": 201,
        "Semi-Major Axis(m)": 6931778.249405717,
        "Time(s)": 170
    },
    {
        "Altitude(m)": 557837.4043406085,
        "Argument of Periapsis(deg)": 0.006274412631202263,
        "Eccentricity": 0.0,
        "Inclination(deg)": 53.0,
        "Latitude(deg)": 44.10756184358653,
        "Longitude(deg)": -9.14196952376204,
        "Mean Anomaly(deg)": 60.37386166402088,
        "RAAN(deg)": 44.99066213860549,
        "Satellite Name": "Starlink Shell 1 201",
        "Satellite Number": 201,
        "Semi-Major Axis(m)": 6931778.249405717,
        "Time(s)": 180
    }
]